{"type": "FeatureCollection", "features": [ {"type": "Feature", "properties": {"norad_id": 37216, "name": "COSMO-SKYMED 4", "group": "resource", "lat": -26.81609061303822, "lon": 173.10761301902562, "alt_km": 628.7897536410173, "timestamp": "2025-12-13T18:50:04.085173+00:00", "meta": {"OBJECT_NAME": "COSMO-SKYMED 4", "OBJECT_ID": "2010-060A", "EPOCH": "2025-12-13T14:05:44.384928", "MEAN_MOTION": 14.82145679, "ECCENTRICITY": 0.0001457, "INCLINATION": 97.8809, "RA_OF_ASC_NODE": 168.8982, "ARG_OF_PERICENTER": 91.0781, "MEAN_ANOMALY": 269.0599, "EPHEMERIS_TYPE": 0, "CLASSIFICATION_TYPE": "U", "NORAD_CAT_ID": 37216, "ELEMENT_SET_NO": 999, "REV_AT_EPOCH": 81707, "BSTAR": 0.00010934, "MEAN_MOTION_DOT": 8.18e-06, "MEAN_MOTION_DDOT": 0}, "tle": {"line1": "1 37216U 10060A   25347.58731927  .00000818  00000+0  10934-3 0  9995", "line2": "2 37216  97.8809 168.8982 0001457  91.0781 269.0599 14.82145679817077"}}, "geometry": {"type": "Point", "coordinates": [173.10761301902562, -26.81609061303822]}}, {"type": "Feature", "properties": {"norad_id": 37387, "name": "RESOURCESAT-2", "group": "resource", "lat": 68.70056989388328, "lon": 27.955627651326623, "alt_km": 809.2739150927782, "timestamp": "2025-12-13T18:50:04.085184+00:00", "meta": {"OBJECT_NAME": "RESOURCESAT-2", "OBJECT_ID": "2011-015A", "EPOCH": "2025-12-13T06:40:48.010944", "MEAN_MOTION": 14.21597717, "ECCENTRICITY": 0.00064137, "INCLINATION": 98.7878, "RA_OF_ASC_NODE": 50.8278, "ARG_OF_PERICENTER": 41.3471, "MEAN_ANOMALY": 318.819, "EPHEMERIS_TYPE": 0, "CLASSIFICATION_TYPE": "U", "NORAD_CAT_ID": 37387, "ELEMENT_SET_NO": 999, "REV_AT_EPOCH": 75976, "BSTAR": 0.00014127722, "MEAN_MOTION_DOT": 2.65e-06, "MEAN_MOTION_DDOT": 0}, "tle": {"line1": "1 37387U 11015A   25347.27833346  .00000265  00000+0  14128-3 0  9994", "line2": "2 37387  98.7878  50.8278 0006413  41.3471 318.8190 14.21597717759769"}}, "geometry": {"type": "Point", "coordinates": [27.955627651326623, 68.70056989388328]}}, {"type": "Feature", "properties": {"norad_id": 37781, "name": "HAIYANG-2A", "group": "resource", "lat": -41.66008069518531, "lon": -2.878699709100115, "alt_km": 975.1805923649408, "timestamp": "2025-12-13T18:50:04.085195+00:00", "meta": {"OBJECT_NAME": "HAIYANG-2A", "OBJECT_ID": "2011-043A", "EPOCH": "2025-12-13T06:50:55.623264", "MEAN_MOTION": 13.78834391, "ECCENTRICITY": 0.00016501, "INCLINATION": 99.3383, "RA_OF_ASC_NODE": 348.2114, "ARG_OF_PERICENTER": 82.4238, "MEAN_ANOMALY": 277.7101, "EPHEMERIS_TYPE": 0, "CLASSIFICATION_TYPE": "U", "NORAD_CAT_ID": 37781, "ELEMENT_SET_NO": 999, "REV_AT_EPOCH": 72106, "BSTAR": -0.00015480109, "MEAN_MOTION_DOT": -2.02e-06, "MEAN_MOTION_DDOT": 0}, "tle": {"line1": "1 37781U 11043A   25347.28536601 -.00000202  00000+0 -15480-3 0  9993", "line2": "2 37781  99.3383 348.2114 0001650  82.4238 277.7101 13.78834391721063"}}, "geometry": {"type": "Point", "coordinates": [-2.878699709100115, -41.66008069518531]}}, {"type": "Feature", "properties": {"norad_id": 37791, "name": "RASAT", "group": "resource", "lat": 48.219743753898925, "lon": 67.89575825177603, "alt_km": 648.3972279281943, "timestamp": "2025-12-13T18:50:04.085205+00:00", "meta": {"OBJECT_NAME": "RASAT", "OBJECT_ID": "2011-044D", "EPOCH": "2025-12-13T07:29:13.558272", "MEAN_MOTION": 14.67912767, "ECCENTRICITY": 0.00218734, "INCLINATION": 98.0645, "RA_OF_ASC_NODE": 76.5607, "ARG_OF_PERICENTER": 63.3939, "MEAN_ANOMALY": 8.5557, "EPHEMERIS_TYPE": 0, "CLASSIFICATION_TYPE": "U", "NORAD_CAT_ID": 37791, "ELEMENT_SET_NO": 999, "REV_AT_EPOCH": 76591, "BSTAR": 0.00025779547, "MEAN_MOTION_DOT": 1.431e-05, "MEAN_MOTION_DDOT": 0}, "tle": {"line1": "1 37791U 11044D   25347.31196248  .00001431  00000+0  25780-3 0  9995", "line2": "2 37791  98.0645  76.5607 0021873  63.3939   8.5557 14.67912767765914"}}, "geometry": {"type": "Point", "coordinates": [67.89575825177603, 48.219743753898925]}}, {"type": "Feature", "properties": {"norad_id": 37841, "name": "SRMSAT", "group": "resource", "lat": -1.2857801331267726, "lon": 98.08590434622232, "alt_km": 844.7716941557865, "timestamp": "2025-12-13T18:50:04.085216+00:00", "meta": {"OBJECT_NAME": "SRMSAT", "OBJECT_ID": "2011-058D", "EPOCH": "2025-12-13T00:55:22.594944", "MEAN_MOTION": 14.11511594, "ECCENTRICITY": 0.00117679, "INCLINATION": 19.971, "RA_OF_ASC_NODE": 106.1426, "ARG_OF_PERICENTER": 316.7615, "MEAN_ANOMALY": 198.8861, "EPHEMERIS_TYPE": 0, "CLASSIFICATION_TYPE": "U", "NORAD_CAT_ID": 37841, "ELEMENT_SET_NO": 999, "REV_AT_EPOCH": 73148, "BSTAR": 0.00013117397, "MEAN_MOTION_DOT": 5.06e-06, "MEAN_MOTION_DDOT": 0}, "tle": {"line1": "1 37841U 11058D   25347.03845596  .00000506  00000+0  13117-3 0  9995", "line2": "2 37841  19.9710 106.1426 0011767 316.7615 198.8861 14.11511594731489"}}, "geometry": {"type": "Point", "coordinates": [98.08590434622232, -1.2857801331267726]}}, {"type": "Feature", "properties": {"norad_id": 38012, "name": "PLEIADES 1A", "group": "resource", "lat": 10.743182144077101, "lon": -117.89906552117293, "alt_km": 699.3923989811747, "timestamp": "2025-12-13T18:50:04.085227+00:00", "meta": {"OBJECT_NAME": "PLEIADES 1A", "OBJECT_ID": "2011-076F", "EPOCH": "2025-12-13T08:31:01.282944", "MEAN_MOTION": 14.58563252, "ECCENTRICITY": 0.00012967, "INCLINATION": 98.1819, "RA_OF_ASC_NODE": 60.1135, "ARG_OF_PERICENTER": 74.3067, "MEAN_ANOMALY": 358.7484, "EPHEMERIS_TYPE": 0, "CLASSIFICATION_TYPE": "U", "NORAD_CAT_ID": 38012, "ELEMENT_SET_NO": 999, "REV_AT_EPOCH": 74490, "BSTAR": 0.00019489246, "MEAN_MOTION_DOT": 8.61e-06, "MEAN_MOTION_DDOT": 0}, "tle": {"line1": "1 38012U 11076F   25347.35487596  .00000861  00000+0  19489-3 0  9995", "line2": "2 38012  98.1819  60.1135 0001296  74.3067 358.7484 14.58563252744907"}}, "geometry": {"type": "Point", "coordinates": [-117.89906552117293, 10.743182144077101]}}, {"type": "Feature", "properties": {"norad_id": 38038, "name": "ZIYUAN 1-02C (ZY 1-02C)", "group": "resource", "lat": -0.5442808719605154, "lon": 53.85929813894314, "alt_km": 771.7736607732159, "timestamp": "2025-12-13T18:50:04.085238+00:00", "meta": {"OBJECT_NAME": "ZIYUAN 1-02C (ZY 1-02C)", "OBJECT_ID": "2011-079A", "EPOCH": "2025-12-13T07:30:03.259008", "MEAN_MOTION": 14.38014031, "ECCENTRICITY": 0.00072061, "INCLINATION": 98.4329, "RA_OF_ASC_NODE": 53.3151, "ARG_OF_PERICENTER": 136.8031, "MEAN_ANOMALY": 299.5609, "EPHEMERIS_TYPE": 0, "CLASSIFICATION_TYPE": "U", "NORAD_CAT_ID": 38038, "ELEMENT_SET_NO": 999, "REV_AT_EPOCH": 73249, "BSTAR": 0.00034544416, "MEAN_MOTION_DOT": 1.002e-05, "MEAN_MOTION_DDOT": 0}, "tle": {"line1": "1 38038U 11079A   25347.31253772  .00001002  00000+0  34544-3 0  9996", "line2": "2 38038  98.4329  53.3151 0007206 136.8031 299.5609 14.38014031732494"}}, "geometry": {"type": "Point", "coordinates": [53.85929813894314, -0.5442808719605154]}}, {"type": "Feature", "properties": {"norad_id": 38046, "name": "ZIYUAN 3-1 (ZY 3-1)", "group": "resource", "lat": -72.76686367837627, "lon": 78.19058282806023, "alt_km": 369.09656244136204, "timestamp": "2025-12-13T18:50:04.085249+00:00", "meta": {"OBJECT_NAME": "ZIYUAN 3-1 (ZY 3-1)", "OBJECT_ID": "2012-001A", "EPOCH": "2025-12-13T06:54:12.337056", "MEAN_MOTION": 15.68694418, "ECCENTRICITY": 0.00017246, "INCLINATION": 97.1754, "RA_OF_ASC_NODE": 53.7178, "ARG_OF_PERICENTER": 350.3429, "MEAN_ANOMALY": 9.7799, "EPHEMERIS_TYPE": 0, "CLASSIFICATION_TYPE": "U", "NORAD_CAT_ID": 38046, "ELEMENT_SET_NO": 999, "REV_AT_EPOCH": 77505, "BSTAR": 0.00096345471, "MEAN_MOTION_DOT": 0.0011072, "MEAN_MOTION_DDOT": 0}, "tle": {"line1": "1 38046U 12001A   25347.28764279  .00110720  00000+0  96345-3 0  9991", "line2": "2 38046  97.1754  53.7178 0001724 350.3429   9.7799 15.68694418775054"}}, "geometry": {"type": "Point", "coordinates": [78.19058282806023, -72.76686367837627]}}, {"type": "Feature", "properties": {"norad_id": 38338, "name": "ARIRANG-3 (KOMPSAT-3)", "group": "resource", "lat": 75.68078431582929, "lon": -92.65852086828659, "alt_km": 681.2874095543057, "timestamp": "2025-12-13T18:50:04.085260+00:00", "meta": {"OBJECT_NAME": "ARIRANG-3 (KOMPSAT-3)", "OBJECT_ID": "2012-025B", "EPOCH": "2025-12-13T06:58:39.047808", "MEAN_MOTION": 14.61713927, "ECCENTRICITY": 0.00053235, "INCLINATION": 98.3322, "RA_OF_ASC_NODE": 301.8842, "ARG_OF_PERICENTER": 337.066, "MEAN_ANOMALY": 23.0302, "EPHEMERIS_TYPE": 0, "CLASSIFICATION_TYPE": "U", "NORAD_CAT_ID": 38338, "ELEMENT_SET_NO": 999, "REV_AT_EPOCH": 72418, "BSTAR": 0.00019740491, "MEAN_MOTION_DOT": 9.35e-06, "MEAN_MOTION_DDOT": 0}, "tle": {"line1": "1 38338U 12025B   25347.29072972  .00000935  00000+0  19740-3 0  9994", "line2": "2 38338  98.3322 301.8842 0005323 337.0660  23.0302 14.61713927724181"}}, "geometry": {"type": "Point", "coordinates": [-92.65852086828659, 75.68078431582929]}}, {"type": "Feature", "properties": {"norad_id": 38709, "name": "EXACTVIEW-1 (ADS-1B)", "group": "resource", "lat": -60.99451813216897, "lon": 112.73610155768765, "alt_km": 811.352340629548, "timestamp": "2025-12-13T18:50:04.085270+00:00", "meta": {"OBJECT_NAME": "EXACTVIEW-1 (ADS-1B)", "OBJECT_ID": "2012-039C", "EPOCH": "2025-12-13T07:19:44.395680", "MEAN_MOTION": 14.24908543, "ECCENTRICITY": 0.0010645, "INCLINATION": 98.9636, "RA_OF_ASC_NODE": 95.7073, "ARG_OF_PERICENTER": 352.5587, "MEAN_ANOMALY": 7.5432, "EPHEMERIS_TYPE": 0, "CLASSIFICATION_TYPE": "U", "NORAD_CAT_ID": 38709, "ELEMENT_SET_NO": 999, "REV_AT_EPOCH": 69623, "BSTAR": 0.00013384563, "MEAN_MOTION_DOT": 2.66e-06, "MEAN_MOTION_DDOT": 0}, "tle": {"line1": "1 38709U 12039C   25347.30537495  .00000266  00000+0  13385-3 0  9995", "line2": "2 38709  98.9636  95.7073 0010645 352.5587   7.5432 14.24908543696239"}}, "geometry": {"type": "Point", "coordinates": [112.73610155768765, -60.99451813216897]}}]}